NORAD_CAT_ID,OBJECT_NAME,OBJECT_TYPE,EPOCH,MEAN_MOTION,ECCENTRICITY,INCLINATION,RA_OF_ASC_NODE,ARG_OF_PERICENTER,MEAN_ANOMALY,BSTAR,MEAN_MOTION_DOT,MEAN_MOTION_DDOT,TLE_LINE0,TLE_LINE1,TLE_LINE2,SEMIMAJOR_AXIS,PERIOD,APOGEE,PERIGEE,DECAYED
52581.0,STARLINK-3915,PAYLOAD,2022-05-27 22:00:01,15.7334314,0.0002192,53.2187,223.8193,32.2908,150.5869,0.00032071,0.00044909,0.0,0 STARLINK-3915,1 52581U 22051AX  22147.91668981  .00044909  00000-0  32071-3 0  9997,2 52581  53.2187 223.8193 0002192  32.2908 150.5869 15.73343140  1304,6727.486999999999,91.525,350.827,347.87699999999984,0.0
52581.0,STARLINK-3915,PAYLOAD,2022-05-28 04:00:00,15.73227306,0.0002062,53.2188,222.5815,33.1206,126.3146,0.00010025,0.00013488,0.0,0 STARLINK-3915,1 52581U 22051AX  22148.16667824  .00013488  00000-0  10025-3 0  9993,2 52581  53.2188 222.5815 0002062  33.1206 126.3146 15.73227306  2786,6727.816999999999,91.532,351.07,348.295,0.0
52581.0,STARLINK-3915,PAYLOAD,2022-05-28 12:28:24,15.73261742,0.0002022,53.2184,220.8342,35.2357,324.8796,0.0003095,0.00043156,0.0,0 STARLINK-3915,1 52581U 22051AX  22148.51972278  .00043156  00000-0  30950-3 0  9998,2 52581  53.2184 220.8342 0002022  35.2357 324.8796 15.73261742  2771,6727.719,91.53,350.944,348.224,0.0
52581.0,STARLINK-3915,PAYLOAD,2022-05-28 22:00:00,15.7328486,0.0002116,53.218,218.8713,24.6989,64.905,-0.0007400999999999,-0.00103606,0.0,0 STARLINK-3915,1 52581U 22051AX  22148.91667824 -.00103606  00000-0 -74010-3 0  9994,2 52581  53.2180 218.8713 0002116  24.6989  64.9050 15.73284860  1302,6727.653,91.528,350.94199999999995,348.095,0.0
52581.0,STARLINK-3915,PAYLOAD,2022-05-29 04:00:00,15.73183926,0.0002002,53.2181,217.6334,28.159,38.1749,3.9394e-05,4.907e-05,0.0,0 STARLINK-3915,1 52581U 22051AX  22149.16667824  .00004907  00000-0  39394-4 0  9991,2 52581  53.2181 217.6334 0002002  28.1590  38.1749 15.73183926  2940,6727.941,91.534,351.153,348.459,0.0
52581.0,STARLINK-3915,PAYLOAD,2022-05-29 12:52:04,15.73177112,0.0002316,53.2181,215.8049,23.0533,337.059,-0.00019804,-0.00028298,0.0,0 STARLINK-3915,1 52581U 22051AX  22149.53616895 -.00028298  00000-0 -19804-3 0  9998,2 52581  53.2181 215.8049 0002316  23.0533 337.0590 15.73177112  2936,6727.96,91.535,351.384,348.267,0.0
52581.0,STARLINK-3915,PAYLOAD,2022-05-29 14:00:01,15.73156097,0.0002337,53.2182,215.5743,24.7022,242.7621,-0.0002056,-0.00029325,0.0,0 STARLINK-3915,1 52581U 22051AX  22149.58334491 -.00029325  00000-0 -20560-3 0  9995,2 52581  53.2182 215.5743 0002337  24.7022 242.7621 15.73156097  3004,6728.02,91.536,351.458,348.31300000000016,0.0
52581.0,STARLINK-3915,PAYLOAD,2022-05-29 22:00:00,15.73118016,0.0002226,53.2182,213.9233,27.1253,329.2215,5.0032e-05,6.382e-05,0.0,0 STARLINK-3915,1 52581U 22051AX  22149.91667824  .00006382  00000-0  50032-4 0  9995,2 52581  53.2182 213.9233 0002226  27.1253 329.2215 15.73118016  1300,6728.129,91.538,351.492,348.496,0.0
52581.0,STARLINK-3915,PAYLOAD,2022-05-30 06:00:00,15.73117831,0.0002251,53.2183,212.274,29.5703,55.5998,0.0009152,0.00129367,0.0,0 STARLINK-3915,1 52581U 22051AX  22150.25001157  .00129367  00000-0  91520-3 0  9990,2 52581  53.2183 212.2740 0002251  29.5703  55.5998 15.73117831  3112,6728.129,91.538,351.509,348.48,0.0
52581.0,STARLINK-3915,PAYLOAD,2022-05-30 12:00:00,15.7318151,0.0002442,53.2179,211.0387,25.1868,36.6088,0.00051533,0.00072276,0.0,0 STARLINK-3915,1 52581U 22051AX  22150.50001157  .00072276  00000-0  51533-3 0  9994,2 52581  53.2179 211.0387 0002442  25.1868  36.6088 15.73181510  3156,6727.948,91.534,351.456,348.17,0.0
52581.0,STARLINK-3915,PAYLOAD,2022-05-30 13:15:49,15.73126563,0.0002787,53.2178,210.7766,77.9664,282.1669,5.374100000000001e-05,6.904e-05,0.0,0 STARLINK-3915,1 52581U 22051AX  22150.55265597  .00006904  00000-0  53741-4 0  9998,2 52581  53.2178 210.7766 0002787  77.9664 282.1669 15.73126563  3096,6728.105,91.537,351.845,348.094,0.0
52581.0,STARLINK-3915,PAYLOAD,2022-05-30 20:53:13,15.73201305,0.000351,53.2176,209.2044,46.987,313.1444,0.0004135,0.00057828,0.0,0 STARLINK-3915,1 52581U 22051AX  22150.87029993  .00057828  00000-0  41350-3 0  9994,2 52581  53.2176 209.2044 0003510  46.9870 313.1444 15.73201305  3214,6727.891,91.533,352.11800000000005,347.395,0.0
52581.0,STARLINK-3915,PAYLOAD,2022-05-31 06:00:02,15.7322449,0.0002151,53.2175,207.326,21.1505,330.8455,0.00011288,0.00015267,0.0,0 STARLINK-3915,1 52581U 22051AX  22151.25002315  .00015267  00000-0  11288-3 0  9994,2 52581  53.2175 207.3260 0002151  21.1505 330.8455 15.73224490  1308,6727.825,91.532,351.13800000000015,348.24300000000005,0.0
52581.0,STARLINK-3915,PAYLOAD,2022-05-31 12:08:00,15.73223744,0.0002089,53.2173,206.0615,20.3691,339.7412,0.00016231,0.00022243,0.0,0 STARLINK-3915,1 52581U 22051AX  22151.50556278  .00022243  00000-0  16231-3 0  9999,2 52581  53.2173 206.0615 0002089  20.3691 339.7412 15.73223744  3318,6727.8269999999975,91.532,351.098,348.287,0.0
52581.0,STARLINK-3915,PAYLOAD,2022-05-31 22:00:00,15.73201237,0.0002365,53.2176,204.0268,24.7151,145.1565,0.00038516,0.00053788,0.0,0 STARLINK-3915,1 52581U 22051AX  22151.91667824  .00053788  00000-0  38516-3 0  9992,2 52581  53.2176 204.0268 0002365  24.7151 145.1565 15.73201237  1307,6727.892,91.533,351.348,348.166,0.0
52581.0,STARLINK-3915,PAYLOAD,2022-06-01 06:00:00,15.73274654,0.0002362,53.2177,202.3777,25.6323,233.1723,-0.00064717,-0.00090776,0.0,0 STARLINK-3915,1 52581U 22051AX  22152.25001157 -.00090776  00000-0 -64717-3 0  9993,2 52581  53.2177 202.3777 0002362  25.6323 233.1723 15.73274654  3424,6727.682,91.529,351.136,347.958,0.0
52581.0,STARLINK-3915,PAYLOAD,2022-06-01 20:00:01,15.73247924,0.000235,53.2169,199.4911,19.3787,305.0951,-0.0006792,-0.00095082,0.0,0 STARLINK-3915,1 52581U 22051AX  22152.83334491 -.00095082  00000-0 -67920-3 0  9991,2 52581  53.2169 199.4911 0002350  19.3787 305.0951 15.73247924  3514,6727.759,91.53,351.205,348.043,0.0
52581.0,STARLINK-3915,PAYLOAD,2022-06-02 17:29:47,15.73217034,0.0003026,53.2173,195.0578,22.3521,337.7630000000001,1.192e-05,1.052e-05,0.0,0 STARLINK-3915,1 52581U 22051AX  22153.72902454  .00001052  00000-0  11920-4 0  9992,2 52581  53.2173 195.0578 0003026  22.3521 337.7630 15.73217034  3662,6727.847,91.532,351.747,347.676,0.0
52581.0,STARLINK-3915,PAYLOAD,2022-06-03 08:44:34,15.73236513,0.0002586,53.2168,191.9151,24.4902,335.6241,9.682e-05,0.0001301,0.0,0 STARLINK-3915,1 52581U 22051AX  22154.36429372  .00013010  00000-0  96820-4 0  9995,2 52581  53.2168 191.9151 0002586  24.4902 335.6241 15.73236513  3763,6727.791,91.531,351.396,347.916,0.0
52581.0,STARLINK-3915,PAYLOAD,2022-06-03 13:19:01,15.73212524,0.000215,53.2173,190.9716,16.5536,343.5554,1.3563e-05,1.283e-05,0.0,0 STARLINK-3915,1 52581U 22051AX  22154.55487987  .00001283  00000-0  13563-4 0  9994,2 52581  53.2173 190.9716 0002150  16.5536 343.5554 15.73212524  3791,6727.859,91.532,351.171,348.278,0.0
52581.0,STARLINK-3915,PAYLOAD,2022-06-04 12:11:12,15.73222959,0.0002508,53.2173,186.2563,18.6125,341.4986,6.0909e-05,7.943e-05,0.0,0 STARLINK-3915,1 52581U 22051AX  22155.50778869  .00007943  00000-0  60909-4 0  9997,2 52581  53.2173 186.2563 0002508  18.6125 341.4986 15.73222959  3871,6727.83,91.532,351.38199999999995,348.00699999999995,0.0
52581.0,STARLINK-3915,PAYLOAD,2022-06-05 22:00:00,15.73146983,0.0002449,53.2181,179.2849,15.8137,48.1838,0.00050605,0.00070845,0.0,0 STARLINK-3915,1 52581U 22051AX  22156.91667824  .00070845  00000-0  50605-3 0  9993,2 52581  53.2181 179.2849 0002449  15.8137  48.1838 15.73146983  4167,6728.045999999999,91.536,351.559,348.264,0.0
52581.0,STARLINK-3915,PAYLOAD,2022-06-06 14:00:01,15.73245666,0.000265,53.2166,175.9879,13.5952,228.2444,-0.0003273999999999,-0.00046416,0.0,0 STARLINK-3915,1 52581U 22051AX  22157.58334491 -.00046416  00000-0 -32740-3 0  9997,2 52581  53.2166 175.9879 0002650  13.5952 228.2444 15.73245666  4263,6727.765,91.531,351.413,347.847,0.0
52581.0,STARLINK-3915,PAYLOAD,2022-06-06 22:00:00,15.7316361,0.0002443,53.2167,174.3363,13.9621,316.8549,0.00052952,0.00074243,0.0,0 STARLINK-3915,1 52581U 22051AX  22157.91667824  .00074243  00000-0  52952-3 0  9997,2 52581  53.2167 174.3363 0002443  13.9621 316.8549 15.73163610  1302,6727.999,91.535,351.5080000000001,348.22,0.0
52581.0,STARLINK-3915,PAYLOAD,2022-06-07 06:00:00,15.73243553,0.0002669,53.2171,172.6884,16.1975,43.5403,-0.0001708,-0.00024572,0.0,0 STARLINK-3915,1 52581U 22051AX  22158.25001157 -.00024572  00000-0 -17080-3 0  9991,2 52581  53.2171 172.6884 0002669  16.1975  43.5403 15.73243553  4371,6727.771,91.531,351.432,347.84,0.0
52581.0,STARLINK-3915,PAYLOAD,2022-06-07 14:00:01,15.73223137,0.0002824,53.2166,171.0393,17.4205,131.2866,-0.00019544,-0.00027993,0.0,0 STARLINK-3915,1 52581U 22051AX  22158.58334491 -.00027993  00000-0 -19544-3 0  9994,2 52581  53.2166 171.0393 0002824  17.4205 131.2866 15.73223137  1300,6727.829000000002,91.532,351.594,347.7940000000001,0.0
52581.0,STARLINK-3915,PAYLOAD,2022-06-07 22:00:00,15.7321593,0.0002511,53.2166,169.388,20.2464,217.413,2.1123e-05,2.345e-05,0.0,0 STARLINK-3915,1 52581U 22051AX  22158.91667824  .00002345  00000-0  21123-4 0  9999,2 52581  53.2166 169.3880 0002511  20.2464 217.4130 15.73215930  1306,6727.85,91.532,351.404,348.025,0.0
52581.0,STARLINK-3915,PAYLOAD,2022-06-08 06:00:02,15.73196903,0.0002657,53.2167,167.7401,17.8124,308.8657,0.00010154,0.00013652,0.0,0 STARLINK-3915,1 52581U 22051AX  22159.25002315  .00013652  00000-0  10154-3 0  9999,2 52581  53.2167 167.7401 0002657  17.8124 308.8657 15.73196903  4528,6727.904,91.533,351.557,347.981,0.0
52581.0,STARLINK-3915,PAYLOAD,2022-06-08 14:00:01,15.73239137,0.0002719,53.2164,166.09099999999995,13.7391,41.7895,-0.00054195,-0.0007614,0.0,0 STARLINK-3915,1 52581U 22051AX  22159.58334491 -.00076140  00000-0 -54195-3 0  9994,2 52581  53.2164 166.0910 0002719  13.7391  41.7895 15.73239137  1309,6727.784000000002,91.531,351.478,347.819,0.0
